{
 "type": "FeatureCollection",
 "crs": {
  "type": "name",
  "properties": {
   "name": "urn:ogc:def:crs:OGC:1.3:CRS84"
  }
 },
 "features": [
  {
   "type": "Feature",
   "properties": {
    "building_id": "B01",
    "building_name": "Block 3",
    "category": "academic",
    "storeys": 4,
    "height_m": 14.0,
    "osm_id": 44408522,
    "osm_area_m2": 4501.1,
    "osm_perimeter_m": 572.9,
    "has_courtyard": "no",
    "verified": "no",
    "digitised_by": "",
    "digitised_date": ""
   },
   "geometry": {
    "type": "Polygon",
    "coordinates": [
     [
      [
       77.1907891,
       28.5457137
      ],
      [
       77.1933665,
       28.5465756
      ],
      [
       77.1934274,
       28.546435
      ],
      [
       77.19085,
       28.5455731
      ],
      [
       77.1907891,
       28.5457137
      ]
     ]
    ]
   }
  },
  {
   "type": "Feature",
   "properties": {
    "building_id": "B02",
    "building_name": "Block 4",
    "category": "academic",
    "storeys": 4,
    "height_m": 14.0,
    "osm_id": 44408521,
    "osm_area_m2": 3286.7,
    "osm_perimeter_m": 458.0,
    "has_courtyard": "no",
    "verified": "no",
    "digitised_by": "",
    "digitised_date": ""
   },
   "geometry": {
    "type": "Polygon",
    "coordinates": [
     [
      [
       77.1905406,
       28.5460972
      ],
      [
       77.1925815,
       28.5467807
      ],
      [
       77.1926377,
       28.5466511
      ],
      [
       77.1905969,
       28.5459676
      ],
      [
       77.1905406,
       28.5460972
      ]
     ]
    ]
   }
  },
  {
   "type": "Feature",
   "properties": {
    "building_id": "B03",
    "building_name": "Dronagiri House",
    "category": "hostel",
    "storeys": 7,
    "height_m": 24.5,
    "osm_id": 1527964005,
    "osm_area_m2": 3853.7,
    "osm_perimeter_m": 250.1,
    "has_courtyard": "no",
    "verified": "no",
    "digitised_by": "",
    "digitised_date": ""
   },
   "geometry": {
    "type": "Polygon",
    "coordinates": [
     [
      [
       77.1880598,
       28.547081
      ],
      [
       77.1873906,
       28.5469109
      ],
      [
       77.1875642,
       28.5465005
      ],
      [
       77.1883173,
       28.5466446
      ],
      [
       77.1881831,
       28.5470292
      ],
      [
       77.1880598,
       28.547081
      ]
     ]
    ]
   }
  },
  {
   "type": "Feature",
   "properties": {
    "building_id": "B04",
    "building_name": "Saptagiri House",
    "category": "hostel",
    "storeys": 7,
    "height_m": 24.5,
    "osm_id": 1527964006,
    "osm_area_m2": 2697.5,
    "osm_perimeter_m": 248.7,
    "has_courtyard": "no",
    "verified": "no",
    "digitised_by": "",
    "digitised_date": ""
   },
   "geometry": {
    "type": "Polygon",
    "coordinates": [
     [
      [
       77.1868461,
       28.5474808
      ],
      [
       77.1871331,
       28.5475785
      ],
      [
       77.1874768,
       28.5469275
      ],
      [
       77.1869799,
       28.5468069
      ],
      [
       77.1870191,
       28.5468501
      ],
      [
       77.1870895,
       28.5468359
      ],
      [
       77.1868461,
       28.5474808
      ]
     ]
    ]
   }
  },
  {
   "type": "Feature",
   "properties": {
    "building_id": "B05",
    "building_name": "Vindhyachal Hostel",
    "category": "hostel",
    "storeys": 4,
    "height_m": 14.0,
    "osm_id": 301448255,
    "osm_area_m2": 3662.8,
    "osm_perimeter_m": 402.3,
    "has_courtyard": "no",
    "verified": "no",
    "digitised_by": "",
    "digitised_date": ""
   },
   "geometry": {
    "type": "Polygon",
    "coordinates": [
     [
      [
       77.1863513,
       28.5480632
      ],
      [
       77.1862839,
       28.5480631
      ],
      [
       77.1862838,
       28.5481337
      ],
      [
       77.1861139,
       28.5481334
      ],
      [
       77.1861138,
       28.5482045
      ],
      [
       77.186208,
       28.5482046
      ],
      [
       77.1862077,
       28.5483314
      ],
      [
       77.1861435,
       28.5483314
      ],
      [
       77.1861433,
       28.5484311
      ],
      [
       77.1859702,
       28.5484309
      ],
      [
       77.1859701,
       28.548505
      ],
      [
       77.1860613,
       28.5485051
      ],
      [
       77.186061,
       28.5486482
      ],
      [
       77.1861895,
       28.5486484
      ],
      [
       77.1861892,
       28.5488073
      ],
      [
       77.186357,
       28.5488075
      ],
      [
       77.1863571,
       28.548776
      ],
      [
       77.1864104,
       28.5487761
      ],
      [
       77.1864102,
       28.5488476
      ],
      [
       77.1863751,
       28.5488475
      ],
      [
       77.1863749,
       28.5489263
      ],
      [
       77.1864916,
       28.5489265
      ],
      [
       77.1864918,
       28.5488229
      ],
      [
       77.186575,
       28.5488231
      ],
      [
       77.1865756,
       28.5484961
      ],
      [
       77.1866347,
       28.5484962
      ],
      [
       77.1866349,
       28.5484088
      ],
      [
       77.1868001,
       28.548409
      ],
      [
       77.1868003,
       28.5483287
      ],
      [
       77.1867092,
       28.5483285
      ],
      [
       77.1867095,
       28.548187
      ],
      [
       77.1866181,
       28.5481868
      ],
      [
       77.1866179,
       28.5482599
      ],
      [
       77.1864659,
       28.5482597
      ],
      [
       77.186466,
       28.5481931
      ],
      [
       77.1863511,
       28.5481929
      ],
      [
       77.1863513,
       28.5480632
      ]
     ]
    ]
   }
  },
  {
   "type": "Feature",
   "properties": {
    "building_id": "B06",
    "building_name": "Lecture Hall Complex",
    "category": "academic",
    "storeys": 5,
    "height_m": 17.5,
    "osm_id": 19120455,
    "osm_area_m2": 7964.9,
    "osm_perimeter_m": 515.3,
    "has_courtyard": "yes",
    "verified": "no",
    "digitised_by": "",
    "digitised_date": ""
   },
   "geometry": {
    "type": "Polygon",
    "coordinates": [
     [
      [
       77.1923705,
       28.542983
      ],
      [
       77.1924311,
       28.5430041
      ],
      [
       77.1924003,
       28.5430857
      ],
      [
       77.1929734,
       28.5432342
      ],
      [
       77.193022,
       28.543283
      ],
      [
       77.1931015,
       28.5433258
      ],
      [
       77.1931705,
       28.5433363
      ],
      [
       77.193224,
       28.5433274
      ],
      [
       77.193735,
       28.5435294
      ],
      [
       77.1937681,
       28.5434646
      ],
      [
       77.1938732,
       28.5435102
      ],
      [
       77.1939769,
       28.5432817
      ],
      [
       77.1936171,
       28.5431359
      ],
      [
       77.1936303,
       28.5430026
      ],
      [
       77.193576,
       28.5428118
      ],
      [
       77.1934173,
       28.5426853
      ],
      [
       77.1931633,
       28.5426226
      ],
      [
       77.1930158,
       28.5426564
      ],
      [
       77.1928902,
       28.5427193
      ],
      [
       77.1928063,
       28.5427938
      ],
      [
       77.1927555,
       28.5427714
      ],
      [
       77.1927675,
       28.5427418
      ],
      [
       77.1925767,
       28.5426807
      ],
      [
       77.1925559,
       28.5427617
      ],
      [
       77.1924628,
       28.5427359
      ],
      [
       77.1923705,
       28.542983
      ]
     ],
     [
      [
       77.1932739,
       28.5430859
      ],
      [
       77.193284,
       28.5430698
      ],
      [
       77.1932907,
       28.5430523
      ],
      [
       77.1932937,
       28.5430341
      ],
      [
       77.193293,
       28.5430156
      ],
      [
       77.1932885,
       28.5429976
      ],
      [
       77.1932805,
       28.5429806
      ],
      [
       77.1932691,
       28.5429651
      ],
      [
       77.1932615,
       28.5429573
      ],
      [
       77.1932548,
       28.5429516
      ],
      [
       77.1932379,
       28.5429407
      ],
      [
       77.1932191,
       28.5429325
      ],
      [
       77.193199,
       28.5429274
      ],
      [
       77.1931781,
       28.5429255
      ],
      [
       77.1931572,
       28.542927
      ],
      [
       77.1931369,
       28.5429317
      ],
      [
       77.1931179,
       28.5429395
      ],
      [
       77.1931008,
       28.5429502
      ],
      [
       77.1930861,
       28.5429634
      ],
      [
       77.1930744,
       28.5429787
      ],
      [
       77.1930659,
       28.5429956
      ],
      [
       77.1930619,
       28.5430093
      ],
      [
       77.1930611,
       28.5430135
      ],
      [
       77.1930599,
       28.5430319
      ],
      [
       77.1930625,
       28.5430502
      ],
      [
       77.1930688,
       28.5430678
      ],
      [
       77.1930785,
       28.5430841
      ],
      [
       77.1930914,
       28.5430986
      ],
      [
       77.1931071,
       28.5431109
      ],
      [
       77.193125,
       28.5431205
      ],
      [
       77.1931445,
       28.5431272
      ],
      [
       77.1931651,
       28.5431307
      ],
      [
       77.1931861,
       28.5431308
      ],
      [
       77.1932068,
       28.5431277
      ],
      [
       77.1932265,
       28.5431215
      ],
      [
       77.1932446,
       28.5431122
      ],
      [
       77.1932606,
       28.5431002
      ],
      [
       77.1932739,
       28.5430859
      ]
     ]
    ]
   }
  },
  {
   "type": "Feature",
   "properties": {
    "building_id": "B07",
    "building_name": "Academic Complex East",
    "category": "academic",
    "storeys": 6,
    "height_m": 21.0,
    "osm_id": 1088204564,
    "osm_area_m2": 3642.9,
    "osm_perimeter_m": 443.4,
    "has_courtyard": "no",
    "verified": "no",
    "digitised_by": "",
    "digitised_date": ""
   },
   "geometry": {
    "type": "Polygon",
    "coordinates": [
     [
      [
       77.1941587,
       28.5443084
      ],
      [
       77.1941963,
       28.5443744
      ],
      [
       77.1942767,
       28.5443414
      ],
      [
       77.1942446,
       28.5444074
      ],
      [
       77.1942902,
       28.544471
      ],
      [
       77.194376,
       28.5444922
      ],
      [
       77.194443,
       28.5444686
      ],
      [
       77.1944967,
       28.5444026
      ],
      [
       77.1945262,
       28.5444427
      ],
      [
       77.1948266,
       28.5443225
      ],
      [
       77.1948266,
       28.5442848
      ],
      [
       77.1948856,
       28.5442589
      ],
      [
       77.1949741,
       28.5442401
      ],
      [
       77.1949902,
       28.5442259
      ],
      [
       77.194958,
       28.5441929
      ],
      [
       77.195076,
       28.5442212
      ],
      [
       77.1950895,
       28.5441859
      ],
      [
       77.1950278,
       28.5441552
      ],
      [
       77.1949205,
       28.5439644
      ],
      [
       77.1947139,
       28.5435756
      ],
      [
       77.1946281,
       28.5436157
      ],
      [
       77.1946013,
       28.543578
      ],
      [
       77.1946147,
       28.5435591
      ],
      [
       77.1945772,
       28.5434884
      ],
      [
       77.1944672,
       28.5435356
      ],
      [
       77.1945047,
       28.5435874
      ],
      [
       77.1944082,
       28.5436227
      ],
      [
       77.1945181,
       28.5437853
      ],
      [
       77.1944484,
       28.543823
      ],
      [
       77.1945289,
       28.5439173
      ],
      [
       77.1945852,
       28.543922
      ],
      [
       77.1946603,
       28.5440728
      ],
      [
       77.1947488,
       28.5440421
      ],
      [
       77.1947998,
       28.5441458
      ],
      [
       77.194722,
       28.5441788
      ],
      [
       77.1946844,
       28.5441317
      ],
      [
       77.1944833,
       28.5442189
      ],
      [
       77.1945235,
       28.5442495
      ],
      [
       77.1944591,
       28.5442801
      ],
      [
       77.1944296,
       28.5442707
      ],
      [
       77.1944001,
       28.5442683
      ],
      [
       77.1943653,
       28.5442141
      ],
      [
       77.1941587,
       28.5443084
      ]
     ]
    ]
   }
  },
  {
   "type": "Feature",
   "properties": {
    "building_id": "B08",
    "building_name": "Department of Textile Technology",
    "category": "laboratory",
    "storeys": 4,
    "height_m": 14.0,
    "osm_id": 1088204568,
    "osm_area_m2": 4126.1,
    "osm_perimeter_m": 557.1,
    "has_courtyard": "no",
    "verified": "no",
    "digitised_by": "",
    "digitised_date": ""
   },
   "geometry": {
    "type": "Polygon",
    "coordinates": [
     [
      [
       77.1929435,
       28.5441471
      ],
      [
       77.1933771,
       28.5443095
      ],
      [
       77.1933903,
       28.5442756
      ],
      [
       77.1938463,
       28.5444174
      ],
      [
       77.1939017,
       28.5443762
      ],
      [
       77.1939583,
       28.5442323
      ],
      [
       77.193556,
       28.544108
      ],
      [
       77.1936092,
       28.5440164
      ],
      [
       77.1936234,
       28.5440216
      ],
      [
       77.1937263,
       28.5440595
      ],
      [
       77.1939886,
       28.544156
      ],
      [
       77.1940614,
       28.5440281
      ],
      [
       77.1936854,
       28.5438843
      ],
      [
       77.193651,
       28.5438683
      ],
      [
       77.1936955,
       28.5437848
      ],
      [
       77.1940755,
       28.5438967
      ],
      [
       77.1940897,
       28.5438665
      ],
      [
       77.194122,
       28.5438772
      ],
      [
       77.1941524,
       28.5438221
      ],
      [
       77.1941524,
       28.5437529
      ],
      [
       77.1937177,
       28.5435966
      ],
      [
       77.1936652,
       28.5436907
      ],
      [
       77.1936238,
       28.5437241
      ],
      [
       77.1936069,
       28.5437567
      ],
      [
       77.1935703,
       28.5438275
      ],
      [
       77.1934977,
       28.5439676
      ],
      [
       77.1933272,
       28.5439138
      ],
      [
       77.1933167,
       28.543942
      ],
      [
       77.1932634,
       28.5440383
      ],
      [
       77.1934465,
       28.544091
      ],
      [
       77.1934078,
       28.5441726
      ],
      [
       77.1929981,
       28.5440281
      ],
      [
       77.1929435,
       28.5441471
      ]
     ]
    ]
   }
  },
  {
   "type": "Feature",
   "properties": {
    "building_id": "B09",
    "building_name": "Department of Material Science",
    "category": "laboratory",
    "storeys": 4,
    "height_m": 14.0,
    "osm_id": 1088204567,
    "osm_area_m2": 646.3,
    "osm_perimeter_m": 122.0,
    "has_courtyard": "no",
    "verified": "no",
    "digitised_by": "",
    "digitised_date": ""
   },
   "geometry": {
    "type": "Polygon",
    "coordinates": [
     [
      [
       77.1933472,
       28.5443862
      ],
      [
       77.1937983,
       28.5445398
      ],
      [
       77.1938463,
       28.5444174
      ],
      [
       77.1933903,
       28.5442756
      ],
      [
       77.1933771,
       28.5443095
      ],
      [
       77.1933472,
       28.5443862
      ]
     ]
    ]
   }
  },
  {
   "type": "Feature",
   "properties": {
    "building_id": "B10",
    "building_name": "Central Workshop",
    "category": "service",
    "storeys": 2,
    "height_m": 7.0,
    "osm_id": 358768033,
    "osm_area_m2": 7257.0,
    "osm_perimeter_m": 465.1,
    "has_courtyard": "no",
    "verified": "no",
    "digitised_by": "",
    "digitised_date": ""
   },
   "geometry": {
    "type": "Polygon",
    "coordinates": [
     [
      [
       77.1916353,
       28.5436825
      ],
      [
       77.1922119,
       28.5438751
      ],
      [
       77.1922567,
       28.5437716
      ],
      [
       77.1927395,
       28.5439329
      ],
      [
       77.1928013,
       28.5437901
      ],
      [
       77.1923138,
       28.5436272
      ],
      [
       77.1923425,
       28.5435612
      ],
      [
       77.1928235,
       28.5437219
      ],
      [
       77.1929715,
       28.54338
      ],
      [
       77.1924077,
       28.5431916
      ],
      [
       77.1923294,
       28.5431666
      ],
      [
       77.1922924,
       28.5431238
      ],
      [
       77.1921604,
       28.5430935
      ],
      [
       77.1918892,
       28.5431878
      ],
      [
       77.1916353,
       28.5436825
      ]
     ]
    ]
   }
  }
 ]
}